[{"OBJECT_NAME":"LEMUR-2-AMANDA-SVANTE","OBJECT_ID":"2021-034B","EPOCH":"2026-03-09T18:37:58.823328","MEAN_MOTION":15.28469003,"ECCENTRICITY":0.00027027,"INCLINATION":97.5829,"RA_OF_ASC_NODE":144.8625,"ARG_OF_PERICENTER":205.4721,"MEAN_ANOMALY":154.6385,"EPHEMERIS_TYPE":0,"CLASSIFICATION_TYPE":"U","NORAD_CAT_ID":48269,"ELEMENT_SET_NO":999,"REV_AT_EPOCH":26584,"BSTAR":0.0011134246,"MEAN_MOTION_DOT":0.00030872,"MEAN_MOTION_DDOT":0},{"OBJECT_NAME":"STARLINK-30587","OBJECT_ID":"2023-158P","EPOCH":"2026-03-09T07:13:29.484480","MEAN_MOTION":15.27574217,"ECCENTRICITY":6.019e-5,"INCLINATION":43.0018,"RA_OF_ASC_NODE":28.9739,"ARG_OF_PERICENTER":248.2476,"MEAN_ANOMALY":111.8312,"EPHEMERIS_TYPE":0,"CLASSIFICATION_TYPE":"U","NORAD_CAT_ID":58064,"ELEMENT_SET_NO":999,"REV_AT_EPOCH":13351,"BSTAR":-2.8926457e-5,"MEAN_MOTION_DOT":-1.058e-5,"MEAN_MOTION_DDOT":0}]
