LEMUR-2-AMANDA-SVANTE   
1 48269U 21034B   26068.77637527  .00030872  00000+0  11134-2 0  9996
2 48269  97.5829 144.8625 0002703 205.4721 154.6385 15.28469003265849
STARLINK-30587          
1 58064U 23158P   26068.30103570 -.00001058  00000+0 -28926-4 0  9999
2 58064  43.0018  28.9739 0000601 248.2476 111.8312 15.27574217133510
